{
  "type": "FeatureCollection",
  "features": [
    {
      "type": "Feature",
      "properties": {
        "norad_id": 37562,
        "name": "IRIDIUM 33 DEB",
        "group": "iridium-33-debris",
        "lat": -40.98161056203433,
        "lon": 44.56383224372464,
        "alt_km": 730.4815703452223,
        "timestamp": "2025-12-03T06:58:43.627387+00:00",
        "meta_object_name": "IRIDIUM 33 DEB",
        "meta_object_id": "1997-051XX",
        "meta_epoch": "2025-12-02T11:38:58.279200",
        "meta_mean_motion": 14.56310782,
        "meta_eccentricity": 0.00264774,
        "meta_inclination": 86.3757,
        "meta_ra_of_asc_node": 48.0711,
        "meta_arg_of_pericenter": 140.1139,
        "meta_mean_anomaly": 279.2058,
        "meta_ephemeris_type": 0,
        "meta_classification_type": "U",
        "meta_norad_cat_id": 37562,
        "meta_element_set_no": 999,
        "meta_rev_at_epoch": 86179,
        "meta_bstar": 0.0014715729,
        "meta_mean_motion_dot": 6.569e-05,
        "meta_mean_motion_ddot": 0,
        "tle_line1": "1 37562U 97051XX  25336.48539675  .00006569  00000+0  14716-2 0  9997",
        "tle_line2": "2 37562  86.3757  48.0711 0026477 140.1139 279.2058 14.56310782861798"
      },
      "geometry": {
        "type": "Point",
        "coordinates": [
          44.56383224372464,
          -40.98161056203433
        ]
      }
    },
    {
      "type": "Feature",
      "properties": {
        "norad_id": 37565,
        "name": "IRIDIUM 33 DEB",
        "group": "iridium-33-debris",
        "lat": -85.19352917624354,
        "lon": -116.92491627400987,
        "alt_km": 738.162912335376,
        "timestamp": "2025-12-03T06:58:43.627397+00:00",
        "meta_object_name": "IRIDIUM 33 DEB",
        "meta_object_id": "1997-051YA",
        "meta_epoch": "2025-12-02T19:49:35.026176",
        "meta_mean_motion": 14.51449294,
        "meta_eccentricity": 0.0015159,
        "meta_inclination": 86.3504,
        "meta_ra_of_asc_node": 13.8967,
        "meta_arg_of_pericenter": 112.8833,
        "meta_mean_anomaly": 247.3974,
        "meta_ephemeris_type": 0,
        "meta_classification_type": "U",
        "meta_norad_cat_id": 37565,
        "meta_element_set_no": 999,
        "meta_rev_at_epoch": 65693,
        "meta_bstar": 0.00072957,
        "meta_mean_motion_dot": 2.936e-05,
        "meta_mean_motion_ddot": 0,
        "tle_line1": "1 37565U 97051YA  25336.82609984  .00002936  00000+0  72957-3 0  9995",
        "tle_line2": "2 37565  86.3504  13.8967 0015159 112.8833 247.3974 14.51449294656933"
      },
      "geometry": {
        "type": "Point",
        "coordinates": [
          -116.92491627400987,
          -85.19352917624354
        ]
      }
    },
    {
      "type": "Feature",
      "properties": {
        "norad_id": 38017,
        "name": "IRIDIUM 33 DEB",
        "group": "iridium-33-debris",
        "lat": 86.01090910945231,
        "lon": -123.19702762725139,
        "alt_km": 678.1799756766623,
        "timestamp": "2025-12-03T06:58:43.627408+00:00",
        "meta_object_name": "IRIDIUM 33 DEB",
        "meta_object_id": "1997-051YD",
        "meta_epoch": "2025-12-01T06:29:11.103360",
        "meta_mean_motion": 14.48304289,
        "meta_eccentricity": 0.009214,
        "meta_inclination": 86.3439,
        "meta_ra_of_asc_node": 171.2047,
        "meta_arg_of_pericenter": 141.8586,
        "meta_mean_anomaly": 218.9187,
        "meta_ephemeris_type": 0,
        "meta_classification_type": "U",
        "meta_norad_cat_id": 38017,
        "meta_element_set_no": 999,
        "meta_rev_at_epoch": 61236,
        "meta_bstar": 0.0066574,
        "meta_mean_motion_dot": 0.00026341,
        "meta_mean_motion_ddot": 0,
        "tle_line1": "1 38017U 97051YD  25335.27026740  .00026341  00000+0  66574-2 0  9992",
        "tle_line2": "2 38017  86.3439 171.2047 0092140 141.8586 218.9187 14.48304289612362"
      },
      "geometry": {
        "type": "Point",
        "coordinates": [
          -123.19702762725139,
          86.01090910945231
        ]
      }
    },
    {
      "type": "Feature",
      "properties": {
        "norad_id": 38022,
        "name": "IRIDIUM 33 DEB",
        "group": "iridium-33-debris",
        "lat": 53.25322888823205,
        "lon": -164.43019273923105,
        "alt_km": 726.452025747808,
        "timestamp": "2025-12-03T06:58:43.627418+00:00",
        "meta_object_name": "IRIDIUM 33 DEB",
        "meta_object_id": "1997-051YJ",
        "meta_epoch": "2025-12-01T09:24:18.819072",
        "meta_mean_motion": 14.41139287,
        "meta_eccentricity": 0.00471789,
        "meta_inclination": 86.2706,
        "meta_ra_of_asc_node": 21.4121,
        "meta_arg_of_pericenter": 86.4447,
        "meta_mean_anomaly": 274.2147,
        "meta_ephemeris_type": 0,
        "meta_classification_type": "U",
        "meta_norad_cat_id": 38022,
        "meta_element_set_no": 999,
        "meta_rev_at_epoch": 69030,
        "meta_bstar": 0.0011656877,
        "meta_mean_motion_dot": 3.826e-05,
        "meta_mean_motion_ddot": 0,
        "tle_line1": "1 38022U 97051YJ  25335.39188448  .00003826  00000+0  11657-2 0  9990",
        "tle_line2": "2 38022  86.2706  21.4121 0047178  86.4447 274.2147 14.41139287690302"
      },
      "geometry": {
        "type": "Point",
        "coordinates": [
          -164.43019273923105,
          53.25322888823205
        ]
      }
    },
    {
      "type": "Feature",
      "properties": {
        "norad_id": 38028,
        "name": "IRIDIUM 33 DEB",
        "group": "iridium-33-debris",
        "lat": 78.40442143996677,
        "lon": 166.1226885990573,
        "alt_km": 717.4587539248205,
        "timestamp": "2025-12-03T06:58:43.627428+00:00",
        "meta_object_name": "IRIDIUM 33 DEB",
        "meta_object_id": "1997-051YQ",
        "meta_epoch": "2025-12-02T08:55:29.085888",
        "meta_mean_motion": 14.46151271,
        "meta_eccentricity": 0.00294346,
        "meta_inclination": 86.325,
        "meta_ra_of_asc_node": 4.7758,
        "meta_arg_of_pericenter": 153.8613,
        "meta_mean_anomaly": 206.4083,
        "meta_ephemeris_type": 0,
        "meta_classification_type": "U",
        "meta_norad_cat_id": 38028,
        "meta_element_set_no": 999,
        "meta_rev_at_epoch": 65345,
        "meta_bstar": 0.00044678043,
        "meta_mean_motion_dot": 1.624e-05,
        "meta_mean_motion_ddot": 0,
        "tle_line1": "1 38028U 97051YQ  25336.37186442  .00001624  00000+0  44678-3 0  9991",
        "tle_line2": "2 38028  86.3250   4.7758 0029434 153.8613 206.4083 14.46151271653455"
      },
      "geometry": {
        "type": "Point",
        "coordinates": [
          166.1226885990573,
          78.40442143996677
        ]
      }
    },
    {
      "type": "Feature",
      "properties": {
        "norad_id": 38228,
        "name": "IRIDIUM 33 DEB",
        "group": "iridium-33-debris",
        "lat": -41.66011693171561,
        "lon": 49.18062920592447,
        "alt_km": 813.7406435091498,
        "timestamp": "2025-12-03T06:58:43.627439+00:00",
        "meta_object_name": "IRIDIUM 33 DEB",
        "meta_object_id": "1997-051ZC",
        "meta_epoch": "2025-12-02T12:58:20.281728",
        "meta_mean_motion": 14.27241218,
        "meta_eccentricity": 0.00633313,
        "meta_inclination": 86.295,
        "meta_ra_of_asc_node": 52.8044,
        "meta_arg_of_pericenter": 222.6522,
        "meta_mean_anomaly": 202.4325,
        "meta_ephemeris_type": 0,
        "meta_classification_type": "U",
        "meta_norad_cat_id": 38228,
        "meta_element_set_no": 999,
        "meta_rev_at_epoch": 84636,
        "meta_bstar": 0.00051297903,
        "meta_mean_motion_dot": 1.299e-05,
        "meta_mean_motion_ddot": 0,
        "tle_line1": "1 38228U 97051ZC  25336.54051252  .00001299  00000+0  51298-3 0  9996",
        "tle_line2": "2 38228  86.2950  52.8044 0063331 222.6522 202.4325 14.27241218846362"
      },
      "geometry": {
        "type": "Point",
        "coordinates": [
          49.18062920592447,
          -41.66011693171561
        ]
      }
    },
    {
      "type": "Feature",
      "properties": {
        "norad_id": 38241,
        "name": "IRIDIUM 33 DEB",
        "group": "iridium-33-debris",
        "lat": 22.743822441698153,
        "lon": -3.6870788504934544,
        "alt_km": 708.2924215260009,
        "timestamp": "2025-12-03T06:58:43.627449+00:00",
        "meta_object_name": "IRIDIUM 33 DEB",
        "meta_object_id": "1997-051ZR",
        "meta_epoch": "2025-12-01T08:39:05.059872",
        "meta_mean_motion": 14.54752437,
        "meta_eccentricity": 0.00056988,
        "meta_inclination": 86.3235,
        "meta_ra_of_asc_node": 355.6193,
        "meta_arg_of_pericenter": 96.8352,
        "meta_mean_anomaly": 263.3504,
        "meta_ephemeris_type": 0,
        "meta_classification_type": "U",
        "meta_norad_cat_id": 38241,
        "meta_element_set_no": 999,
        "meta_rev_at_epoch": 60035,
        "meta_bstar": 0.00088099609,
        "meta_mean_motion_dot": 3.793e-05,
        "meta_mean_motion_ddot": 0,
        "tle_line1": "1 38241U 97051ZR  25335.36047523  .00003793  00000+0  88100-3 0  9999",
        "tle_line2": "2 38241  86.3235 355.6193 0005698  96.8352 263.3504 14.54752437600359"
      },
      "geometry": {
        "type": "Point",
        "coordinates": [
          -3.6870788504934544,
          22.743822441698153
        ]
      }
    }
  ]
}